HST                     
1 20580U 90037B   26200.34608724  .00002982  00000+0  89068-4 0  9993
2 20580  28.4721 220.7198 0002147 143.8470 216.2271 15.31084694793507
POLAR                   
1 23802U 96013A   26199.61678930  .00000158  00000+0  00000+0 0  9993
2 23802  79.8974 226.6789 6501891 207.9968  91.9609  1.29846053145262
SWAS                    
1 25560U 98071A   26200.54800772  .00001511  00000+0  99878-4 0  9998
2 25560  69.8944 144.0566 0007620 225.6749 134.3792 15.09762566502155
CXO                     
1 25867U 99040B   26203.75704564  .00000588  00000+0  00000+0 0  9990
2 25867  56.6521 115.7083 7776513 309.9609   0.4914  0.37802006 17453
XMM-NEWTON              
1 25989U 99066A   26201.25992622 -.00000007  00000+0  00000+0 0  9997
2 25989  64.3074 282.5600 4664570  64.3171   0.0365  0.50127970 23163
TERRA                   
1 25994U 99068A   26200.63204532  .00000143  00000+0  38001-4 0  9999
2 25994  97.9438 248.8889 0003567 114.1639  37.2751 14.61125566414342
CLUSTER II-FM7 (SAMBA)  
1 26410U 00041A   26201.60180372  .00010308 -30415-5  00000+0 0  9996
2 26410 149.8020  56.9135 9091713 274.4938 359.4450  0.44850614 20469
CLUSTER II-FM8 (TANGO)  
1 26464U 00045B   26199.95353872  .00014907 -89767-5  00000+0 0  9993
2 26464 150.0091  57.8386 9095648 275.2395   2.0585  0.44423357 20454
ODIN                    
1 26702U 01007A   26200.33231481  .00298908  35583-4  91389-3 0  9997
2 26702  97.3680 243.6758 0004984 151.8712 208.2832 15.91901794394486
TIMED                   
1 26998U 01055B   26200.32261982  .00000537  00000+0  52287-4 0  9990
2 26998  74.0669 170.3110 0002333 296.0865  64.0080 14.95349394335626
CORIOLIS                
1 27640U 03001A   26200.47008715  .00000031  00000+0  35071-4 0  9998
2 27640  98.7136 206.8630 0015083 117.8062 242.4645 14.19952540218808
SORCE                   
1 27651U 03004A   26200.01651124  .00001237  00000+0  98977-4 0  9994
2 27651  39.9916  80.0556 0018755 280.0785  79.7893 15.03852593276694
MOST                    
1 27843U 03031D   26200.45294611  .00000011  00000+0  25123-4 0  9991
2 27843  98.7055 207.7296 0010338 153.2811 206.8901 14.21328228195294
SCISAT 1                
1 27858U 03036A   26200.16677642  .00000258  00000+0  37654-4 0  9994
2 27858  73.9302 107.8039 0007175 174.8549 185.2703 14.81481367236181
SWIFT                   
1 28485U 04047A   26200.59208051  .00038819  00000+0  28094-3 0  9996
2 28485  20.5521 294.3367 0002557  73.2137 286.8590 15.71507596191960
HINODE (SOLAR-B)        
1 29479U 06041A   26200.47945767  .00000255  00000+0  52139-4 0  9996
2 29479  98.0548 216.1562 0017387 180.6910 179.4274 14.68661071 59616
SHIJIAN-6 02A (SJ-6 02A)
1 29505U 06046A   26200.60791476  .00003606  00000+0  18458-3 0  9990
2 29505  97.6338 241.9223 0003996  53.9355 306.2248 15.17272715 77185
SHIJIAN-6 02B (SJ-6 02B)
1 29506U 06046B   26200.60267833  .00000564  00000+0  48355-4 0  9996
2 29506  97.7137 229.4604 0012856 320.5615  39.4672 15.01442374 75609
FGRST (GLAST)           
1 33053U 08029A   26200.50778871  .00001803  00000+0  58708-4 0  9999
2 33053  25.5829 340.0385 0008004 351.6177   8.4226 15.24090393   628
SDO                     
1 36395U 10005A   26200.24111708 -.00000094  00000+0  00000+0 0  9998
2 36395  34.7163  85.8540 0001721  43.5863 152.2121  1.00277469 60389
CRYOSAT 2               
1 36508U 10013A   26200.61183674  .00000064  00000+0  15175-4 0  9995
2 36508  92.0356 285.1842 0002453  98.9250 261.2235 14.51899231862781
X-SAT                   
1 37389U 11015C   26200.59010750 -.00000172  00000+0 -55557-4 0  9997
2 37389  98.3536 176.0739 0012763 246.5588 113.4251 14.25213862792296
GCOM-W1 (SHIZUKU)       
1 38337U 12025A   26200.60330142  .00000181  00000+0  50259-4 0  9997
2 38337  98.2024 140.6687 0001282  79.4592  93.3934 14.57092181753758
NUSTAR                  
1 38358U 12031A   26200.66670139 -.00002424  00000+0 -20082-3 0  9990
2 38358   6.0261 150.4535 0009017 238.5453   8.2081 15.09067786  1306
NEOSSAT                 
1 39089U 13009D   26200.47427082  .00000045  00000+0  30283-4 0  9994
2 39089  98.4193  19.7415 0011687 145.1253 215.0701 14.35836469701379
BRITE-AUSTRIA           
1 39091U 13009F   26200.45681733  .00000061  00000+0  35166-4 0  9993
2 39091  98.4012  19.0965 0010984 138.8360 221.3657 14.36553452701685
IRIS                    
1 39197U 13033A   26200.48796936  .00000445  00000+0  57185-4 0  9993
2 39197  97.9318  39.6631 0023610 210.3759 149.6090 14.85941630705175
HISAKI (SPRINT-A)       
1 39253U 13049A   26200.31286360  .00000090  00000+0  31399-4 0  9995
2 39253  29.7218  56.6784 0136972 277.2426  81.2594 13.55546963635782
CASSIOPE                
1 39265U 13055A   26200.60666191  .00015417 -52806-6  16492-3 0  9995
2 39265  80.9135  27.2620 0282058 312.9158  44.8707 15.27565710672617
STSAT-3                 
1 39422U 13066G   26200.60501037  .00001750  00000+0  13485-3 0  9994
2 39422  97.6208 169.9701 0008816 287.4573  72.5689 15.02902125689070
